{
  "type": "FeatureCollection",
  "features": [
    {
      "type": "Feature",
      "properties": {
        "norad_id": 35661,
        "name": "COSMOS 2251 DEB",
        "group": "cosmos-2251-debris",
        "lat": 73.8296904704223,
        "lon": -162.66775298116605,
        "alt_km": 625.9166857189794,
        "timestamp": "2025-12-03T04:52:30.035201+00:00",
        "meta_object_name": "COSMOS 2251 DEB",
        "meta_object_id": "1993-036APC",
        "meta_epoch": "2025-12-01T15:17:54.099744",
        "meta_mean_motion": 14.86228294,
        "meta_eccentricity": 0.00894294,
        "meta_inclination": 74.0123,
        "meta_ra_of_asc_node": 101.8533,
        "meta_arg_of_pericenter": 208.6797,
        "meta_mean_anomaly": 150.945,
        "meta_ephemeris_type": 0,
        "meta_classification_type": "U",
        "meta_norad_cat_id": 35661,
        "meta_element_set_no": 999,
        "meta_rev_at_epoch": 87703,
        "meta_bstar": 0.0012388204,
        "meta_mean_motion_dot": 0.00011691,
        "meta_mean_motion_ddot": 0,
        "tle_line1": "1 35661U 93036APC 25335.63743171  .00011691  00000+0  12388-2 0  9993",
        "tle_line2": "2 35661  74.0123 101.8533 0089429 208.6797 150.9450 14.86228294877037"
      },
      "geometry": {
        "type": "Point",
        "coordinates": [
          -162.66775298116605,
          73.8296904704223
        ]
      }
    },
    {
      "type": "Feature",
      "properties": {
        "norad_id": 35663,
        "name": "COSMOS 2251 DEB",
        "group": "cosmos-2251-debris",
        "lat": -23.378855504016947,
        "lon": 135.9270326174758,
        "alt_km": 683.7930076874172,
        "timestamp": "2025-12-03T04:52:30.035211+00:00",
        "meta_object_name": "COSMOS 2251 DEB",
        "meta_object_id": "1993-036APE",
        "meta_epoch": "2025-11-30T11:26:45.384288",
        "meta_mean_motion": 14.65332391,
        "meta_eccentricity": 0.00074535,
        "meta_inclination": 74.0171,
        "meta_ra_of_asc_node": 148.2949,
        "meta_arg_of_pericenter": 219.2944,
        "meta_mean_anomaly": 140.7685,
        "meta_ephemeris_type": 0,
        "meta_classification_type": "U",
        "meta_norad_cat_id": 35663,
        "meta_element_set_no": 999,
        "meta_rev_at_epoch": 73202,
        "meta_bstar": 0.0015821861,
        "meta_mean_motion_dot": 8.525e-05,
        "meta_mean_motion_ddot": 0,
        "tle_line1": "1 35663U 93036APE 25334.47691417  .00008525  00000+0  15822-2 0  9999",
        "tle_line2": "2 35663  74.0171 148.2949 0007453 219.2944 140.7685 14.65332391732024"
      },
      "geometry": {
        "type": "Point",
        "coordinates": [
          135.9270326174758,
          -23.378855504016947
        ]
      }
    },
    {
      "type": "Feature",
      "properties": {
        "norad_id": 35667,
        "name": "COSMOS 2251 DEB",
        "group": "cosmos-2251-debris",
        "lat": -34.26102318771148,
        "lon": -10.485179203749627,
        "alt_km": 684.9190359405029,
        "timestamp": "2025-12-03T04:52:30.035221+00:00",
        "meta_object_name": "COSMOS 2251 DEB",
        "meta_object_id": "1993-036APJ",
        "meta_epoch": "2025-11-27T21:14:47.493024",
        "meta_mean_motion": 14.59803731,
        "meta_eccentricity": 0.0020703,
        "meta_inclination": 74.055,
        "meta_ra_of_asc_node": 168.4138,
        "meta_arg_of_pericenter": 231.0984,
        "meta_mean_anomaly": 128.8335,
        "meta_ephemeris_type": 0,
        "meta_classification_type": "U",
        "meta_norad_cat_id": 35667,
        "meta_element_set_no": 999,
        "meta_rev_at_epoch": 70586,
        "meta_bstar": 0.00091618,
        "meta_mean_motion_dot": 4.364e-05,
        "meta_mean_motion_ddot": 0,
        "tle_line1": "1 35667U 93036APJ 25331.88527191  .00004364  00000+0  91618-3 0  9997",
        "tle_line2": "2 35667  74.0550 168.4138 0020703 231.0984 128.8335 14.59803731705867"
      },
      "geometry": {
        "type": "Point",
        "coordinates": [
          -10.485179203749627,
          -34.26102318771148
        ]
      }
    },
    {
      "type": "Feature",
      "properties": {
        "norad_id": 35668,
        "name": "COSMOS 2251 DEB",
        "group": "cosmos-2251-debris",
        "lat": -11.140301439794035,
        "lon": 62.05492794789654,
        "alt_km": 737.2912466311782,
        "timestamp": "2025-12-03T04:52:30.035232+00:00",
        "meta_object_name": "COSMOS 2251 DEB",
        "meta_object_id": "1993-036APK",
        "meta_epoch": "2025-12-02T09:57:33.862464",
        "meta_mean_motion": 14.63933516,
        "meta_eccentricity": 0.00829069,
        "meta_inclination": 74.046,
        "meta_ra_of_asc_node": 240.3376,
        "meta_arg_of_pericenter": 347.8959,
        "meta_mean_anomaly": 12.0214,
        "meta_ephemeris_type": 0,
        "meta_classification_type": "U",
        "meta_norad_cat_id": 35668,
        "meta_element_set_no": 999,
        "meta_rev_at_epoch": 87496,
        "meta_bstar": 0.00042999295,
        "meta_mean_motion_dot": 2.333e-05,
        "meta_mean_motion_ddot": 0,
        "tle_line1": "1 35668U 93036APK 25336.41497526  .00002333  00000+0  42999-3 0  9992",
        "tle_line2": "2 35668  74.0460 240.3376 0082906 347.8959  12.0214 14.63933516874961"
      },
      "geometry": {
        "type": "Point",
        "coordinates": [
          62.05492794789654,
          -11.140301439794035
        ]
      }
    },
    {
      "type": "Feature",
      "properties": {
        "norad_id": 35669,
        "name": "COSMOS 2251 DEB",
        "group": "cosmos-2251-debris",
        "lat": -47.958144120294264,
        "lon": 13.677484394270323,
        "alt_km": 891.2270599092362,
        "timestamp": "2025-12-03T04:52:30.035242+00:00",
        "meta_object_name": "COSMOS 2251 DEB",
        "meta_object_id": "1993-036APL",
        "meta_epoch": "2025-11-22T23:34:15.709728",
        "meta_mean_motion": 13.57109563,
        "meta_eccentricity": 0.03876416,
        "meta_inclination": 73.8603,
        "meta_ra_of_asc_node": 191.6143,
        "meta_arg_of_pericenter": 306.7499,
        "meta_mean_anomaly": 49.8593,
        "meta_ephemeris_type": 0,
        "meta_classification_type": "U",
        "meta_norad_cat_id": 35669,
        "meta_element_set_no": 999,
        "meta_rev_at_epoch": 60521,
        "meta_bstar": 0.00098529597,
        "meta_mean_motion_dot": 1.118e-05,
        "meta_mean_motion_ddot": 0,
        "tle_line1": "1 35669U 93036APL 25326.98212627  .00001118  00000+0  98530-3 0  9993",
        "tle_line2": "2 35669  73.8603 191.6143 0387641 306.7499  49.8593 13.57109563605212"
      },
      "geometry": {
        "type": "Point",
        "coordinates": [
          13.677484394270323,
          -47.958144120294264
        ]
      }
    },
    {
      "type": "Feature",
      "properties": {
        "norad_id": 35670,
        "name": "COSMOS 2251 DEB",
        "group": "cosmos-2251-debris",
        "lat": 0.8835204391424893,
        "lon": -96.4074567063887,
        "alt_km": 606.4649252416793,
        "timestamp": "2025-12-03T04:52:30.035253+00:00",
        "meta_object_name": "COSMOS 2251 DEB",
        "meta_object_id": "1993-036APM",
        "meta_epoch": "2025-12-02T13:36:37.006272",
        "meta_mean_motion": 14.93466193,
        "meta_eccentricity": 0.00371253,
        "meta_inclination": 73.8946,
        "meta_ra_of_asc_node": 85.1379,
        "meta_arg_of_pericenter": 49.569,
        "meta_mean_anomaly": 310.8721,
        "meta_ephemeris_type": 0,
        "meta_classification_type": "U",
        "meta_norad_cat_id": 35670,
        "meta_element_set_no": 999,
        "meta_rev_at_epoch": 87575,
        "meta_bstar": 0.001872791,
        "meta_mean_motion_dot": 0.00019987,
        "meta_mean_motion_ddot": 0,
        "tle_line1": "1 35670U 93036APM 25336.56709498  .00019987  00000+0  18728-2 0  9990",
        "tle_line2": "2 35670  73.8946  85.1379 0037125  49.5690 310.8721 14.93466193875754"
      },
      "geometry": {
        "type": "Point",
        "coordinates": [
          -96.4074567063887,
          0.8835204391424893
        ]
      }
    },
    {
      "type": "Feature",
      "properties": {
        "norad_id": 35671,
        "name": "COSMOS 2251 DEB",
        "group": "cosmos-2251-debris",
        "lat": 13.980132203089646,
        "lon": 101.287891647821,
        "alt_km": 737.7615292544942,
        "timestamp": "2025-12-03T04:52:30.035264+00:00",
        "meta_object_name": "COSMOS 2251 DEB",
        "meta_object_id": "1993-036APN",
        "meta_epoch": "2025-12-01T08:11:18.472992",
        "meta_mean_motion": 14.48314652,
        "meta_eccentricity": 0.0041561,
        "meta_inclination": 74.0169,
        "meta_ra_of_asc_node": 100.6857,
        "meta_arg_of_pericenter": 276.6997,
        "meta_mean_anomaly": 113.402,
        "meta_ephemeris_type": 0,
        "meta_classification_type": "U",
        "meta_norad_cat_id": 35671,
        "meta_element_set_no": 999,
        "meta_rev_at_epoch": 86598,
        "meta_bstar": 0.00028068473,
        "meta_mean_motion_dot": 1.032e-05,
        "meta_mean_motion_ddot": 0,
        "tle_line1": "1 35671U 93036APN 25335.34118603  .00001032  00000+0  28068-3 0  9999",
        "tle_line2": "2 35671  74.0169 100.6857 0041561 276.6997 113.4020 14.48314652865986"
      },
      "geometry": {
        "type": "Point",
        "coordinates": [
          101.287891647821,
          13.980132203089646
        ]
      }
    }
  ]
}